[
  {
    "model": "common.District",
    "pk": "1",
    "fields": {
      "guid": "bfb0393e-fcf2-4896-b780-af97860fdfc9",
      "name": "Baliqchi tumani",
      "region": "1",
      "name_ru": "Балыкчинский район",
      "name_uz": "Baliqchi tumani"
    }
  },
  {
    "model": "common.District",
    "pk": "2",
    "fields": {
      "guid": "637dc961-3f36-4bdf-88c9-591469862be1",
      "name": "Bo'z tumani",
      "region": "1",
      "name_ru": "Бозский район",
      "name_uz": "Bo'z tumani"
    }
  },
  {
    "model": "common.District",
    "pk": "3",
    "fields": {
      "guid": "bb7b6a71-4e08-4bd2-92bf-485697600b00",
      "name": "Buloqboshi tumani",
      "region": "1",
      "name_ru": "Булакбашинский район",
      "name_uz": "Buloqboshi tumani"
    }
  },
  {
    "model": "common.District",
    "pk": "4",
    "fields": {
      "guid": "32a24805-c044-491c-9c34-b95ca20a26d9",
      "name": "Izboskan tumani",
      "region": "1",
      "name_ru": "Избасканский район",
      "name_uz": "Izboskan tumani"
    }
  },
  {
    "model": "common.District",
    "pk": "5",
    "fields": {
      "guid": "209ed66b-28f3-4e05-8546-b7f895d76ed6",
      "name": "Jalolquduq tumani",
      "region": "1",
      "name_ru": "Джалалкудукский район",
      "name_uz": "Jalolquduq tumani"
    }
  },
  {
    "model": "common.District",
    "pk": "6",
    "fields": {
      "guid": "53cfaf4f-b5a6-4453-bbd4-aacdaa989370",
      
      "name": "Xonobod shahri",
      "region": "1",
      "name_ru": "город Ханабад",
      "name_uz": "Xonobod shahri"
    }
  },
  {
    "model": "common.District",
    "pk": "7",
    "fields": {
      "guid": "0d1a24f8-a929-4a0d-a00e-7da93b050438",
      "name": "Xo'jaobod tumani",
      "region": "1",
      "name_ru": "Ходжаабадский район",
      "name_uz": "Xo'jaobod tumani"
    }
  },
  {
    "model": "common.District",
    "pk": "8",
    "fields": {
      "guid": "5be33d3a-1e82-4d84-a1de-f10261fc4fa2",
      "name": "Marxamat tumani",
      "region": "1",
      "name_ru": "Мархаматский район",
      "name_uz": "Marxamat tumani"
    }
  },
  {
    "model": "common.District",
    "pk": "9",
    "fields": {
      "guid": "395a4a0e-df19-4efe-b8c7-2f2e97f37c54",
      "name": "Oltinko'l tumani",
      "region": "1",
      "name_ru": "Aлтынкульский район",
      "name_uz": "Oltinko'l tumani"
    }
  },
  {
    "model": "common.District",
    "pk": "10",
    "fields": {
      "guid": "66780852-a561-481a-b70c-ff74700942fb",
      "name": "Paxtaobod tumani",
      "region": "1",
      "name_ru": "Пахтаабадский район",
      "name_uz": "Paxtaobod tumani"
    }
  },
  {
    "model": "common.District",
    "pk": "11",
    "fields": {
      "guid": "88297919-8dc8-4ce1-8cdd-de02736b4da3",
      "name": "Qo'rg'ontepa tumani",
      "region": "1",
      "name_ru": "Кургантепинский район",
      "name_uz": "Qo'rg'ontepa tumani"
    }
  },
  {
    "model": "common.District",
    "pk": "12",
    "fields": {
      "guid": "be4e4870-4265-46a6-a4a1-04c585d73822",
      "name": "Shaxrixon tumani",
      "region": "1",
      "name_ru": "Шахриханский район",
      "name_uz": "Shaxrixon tumani"
    }
  },
  {
    "model": "common.District",
    "pk": "13",
    "fields": {
      "guid": "97131ad9-c17d-4d85-ac3b-2d50d0f65a34",
      "name": "Ulug'nor tumani",
      "region": "1",
      "name_ru": "Улугнорский район",
      "name_uz": "Ulug'nor tumani"
    }
  },
  {
    "model": "common.District",
    "pk": "14",
    "fields": {
      "guid": "7fdd6a08-95b7-43c5-9533-0451f9f76acd",      "name": "Andijon shahri",
      "region": "1",
      "name_ru": "город Aндижан",
      "name_uz": "Andijon shahri"
    }
  },
  {
    "model": "common.District",
    "pk": "15",
    "fields": {
      "guid": "678a8d2c-7a1e-48bc-9b42-141cc45ba720",
      "name": "Andijon tumani",
      "region": "1",
      "name_ru": "Aндижанский район",
      "name_uz": "Andijon tumani"
    }
  },
  {
    "model": "common.District",
    "pk": "16",
    "fields": {
      "guid": "7a6de5d3-1819-45aa-825e-7bf941f174c1",
      "name": "Asaka tumani",
      "region": "1",
      "name_ru": "Aсакинский район",
      "name_uz": "Asaka tumani"
    }
  },
  {
    "model": "common.District",
    "pk": "17",
    "fields": {
      "guid": "7e0c757b-f7b6-4eb2-a5c6-8236941404e3",
      "name": "Buxoro shahri",
      "region": "2",
      "name_ru": "город Бухара",
      "name_uz": "Buxoro shahri"
    }
  },
  {
    "model": "common.District",
    "pk": "18",
    "fields": {
      "guid": "d3afaa14-32eb-41b1-b7f7-fd21b3a76883",
      "name": "Buxoro tumani",
      "region": "2",
      "name_ru": "Бухарский район",
      "name_uz": "Buxoro tumani"
    }
  },
  {
    "model": "common.District",
    "pk": "19",
    "fields": {
      "guid": "00985000-49c9-42f9-902d-ce71d74b98d0",
      "name": "G'ijduvon tumani",
      "region": "2",
      "name_ru": "Гиждуванский район",
      "name_uz": "G'ijduvon tumani"
    }
  },
  {
    "model": "common.District",
    "pk": "20",
    "fields": {
      "guid": "7585f253-cdfe-4a54-8441-bce669145042",
      "name": "Jondor tumani",
      "region": "2",
      "name_ru": "Жондорский район",
      "name_uz": "Jondor tumani"
    }
  },
  {
    "model": "common.District",
    "pk": "21",
    "fields": {
      "guid": "4e32f7b3-5585-4398-b962-af760159499a",
      "name": "Kogon shahri",
      "region": "2",
      "name_ru": "город Каган",
      "name_uz": "Kogon shahri"
    }
  },
  {
    "model": "common.District",
    "pk": "22",
    "fields": {
      "guid": "a56a7455-93c8-4823-b74c-b17d46a5bb1a",
      "name": "Kogon tumani",
      "region": "2",
      "name_ru": "Каганский район",
      "name_uz": "Kogon tumani"
    }
  },
  {
    "model": "common.District",
    "pk": "23",
    "fields": {
      "guid": "7d7266a6-9578-4e48-a084-d56746693d7d",
      "name": "Olot tumani",
      "region": "2",
      "name_ru": "Aлатский район",
      "name_uz": "Olot tumani"
    }
  },
  {
    "model": "common.District",
    "pk": "24",
    "fields": {
      "guid": "7126a4a0-6d98-47ab-a39a-73f868cf70d7",
      "name": "Peshku tumani",
      "region": "2",
      "name_ru": "Пешкунский район",
      "name_uz": "Peshku tumani"
    }
  },
  {
    "model": "common.District",
    "pk": "25",
    "fields": {
      "guid": "5c5e23a6-1715-452d-9286-92d088e5ea5a",     "name": "Qorako'l tumani",
      "region": "2",
      "name_ru": "Каракульский район",
      "name_uz": "Qorako'l tumani"
    }
  },
  {
    "model": "common.District",
    "pk": "26",
    "fields": {
      "guid": "5cddd2a5-8eb4-4cf5-a8b2-c29babb3d1c6",
      "name": "Qorovulbozor tumani",
      "region": "2",
      "name_ru": "Караулбазарский район",
      "name_uz": "Qorovulbozor tumani"
    }
  },
  {
    "model": "common.District",
    "pk": "27",
    "fields": {
      "guid": "ef3b18a7-f2ec-43f1-86a6-1e795ceacf50",
      "name": "Romitan tumani",
      "region": "2",
      "name_ru": "Ромитанский район",
      "name_uz": "Romitan tumani"
    }
  },
  {
    "model": "common.District",
    "pk": "28",
    "fields": {
      "guid": "92eebdf0-a648-42d4-91a1-4f4745a24687",      "name": "Shofirkon tumani",
      "region": "2",
      "name_ru": "Шафирканский район",
      "name_uz": "Shofirkon tumani"
    }
  },
  {
    "model": "common.District",
    "pk": "29",
    "fields": {
      "guid": "b58ee1db-0132-41eb-a961-8fcf736048b7",
      "name": "Vobkent tumani",
      "region": "2",
      "name_ru": "Вабкентский район",
      "name_uz": "Vobkent tumani"
    }
  },
  {
    "model": "common.District",
    "pk": "30",
    "fields": {
      "guid": "1a7fb324-8a86-49d1-a6e2-fed1f5b67d23",
      "name": "Beshariq tumani",
      "region": "3",
      "name_ru": "Бешарыкский район",
      "name_uz": "Beshariq tumani"
    }
  },
  {
    "model": "common.District",
    "pk": "31",
    "fields": {
      "guid": "0a16e79d-530b-43ae-9f7c-342133b917be",
      "name": "Bog'dod tumani",
      "region": "3",
      "name_ru": "Багдадский район",
      "name_uz": "Bog'dod tumani"
    }
  },
  {
    "model": "common.District",
    "pk": "32",
    "fields": {
      "guid": "129977c3-f676-4c04-9177-99274071feb3",
    
      "name": "Buvayda tumani",
      "region": "3",
      "name_ru": "Бувайдинский район",
      "name_uz": "Buvayda tumani"
    }
  },
  {
    "model": "common.District",
    "pk": "33",
    "fields": {
      "guid": "9197bb1b-22b5-4aa5-9881-a62d7510785e",
      "name": "Dang'ara tumani",
      "region": "3",
      "name_ru": "Дангаринский район",
      "name_uz": "Dang'ara tumani"
    }
  },
  {
    "model": "common.District",
    "pk": "34",
    "fields": {
      "guid": "ed4b3750-18c7-4b7d-8654-e520569cfdf1",
      "name": "Farg'ona shahri",
      "region": "3",
      "name_ru": "город Фергана",
      "name_uz": "Farg'ona shahri"
    }
  },
  {
    "model": "common.District",
    "pk": "35",
    "fields": {
      "guid": "2fa1609c-33cb-4be5-8957-d5332a5514d2",
      "name": "Farg'ona tumani",
      "region": "3",
      "name_ru": "Ферганский район",
      "name_uz": "Farg'ona tumani"
    }
  },
  {
    "model": "common.District",
    "pk": "36",
    "fields": {
      "guid": "af92a189-72b9-4eee-9897-113b8177e936",
      "name": "Furqat tumani",
      "region": "3",
      "name_ru": "Фуркатский район",
      "name_uz": "Furqat tumani"
    }
  },
  {
    "model": "common.District",
    "pk": "37",
    "fields": {
      "guid": "06ea11ee-21cb-40ea-87a3-04980a6669d4",
      "name": "Qo'qon shahri",
      "region": "3",
      "name_ru": "город Коканд",
      "name_uz": "Qo'qon shahri"
    }
  },
  {
    "model": "common.District",
    "pk": "38",
    "fields": {
      "guid": "0f866ba8-99db-412e-aeb8-40fc977f0ea3",
      "name": "Marg'ilon shahri",
      "region": "3",
      "name_ru": "город Маргилан",
      "name_uz": "Marg'ilon shahri"
    }
  },
  {
    "model": "common.District",
    "pk": "39",
    "fields": {
      "guid": "26394fac-3191-451e-8edd-f49851b6c5f3",
      "name": "Oltiariq tumani",
      "region": "3",
      "name_ru": "Aлтыарыкский район",
      "name_uz": "Oltiariq tumani"
    }
  },
  {
    "model": "common.District",
    "pk": "40",
    "fields": {
      "guid": "439d7572-53b3-4129-bd77-1360857f632f",
      "name": "Qo'shtepa tumani",
      "region": "3",
      "name_ru": "Куштепинский район",
      "name_uz": "Qo'shtepa tumani"
    }
  },
  {
    "model": "common.District",
    "pk": "41",
    "fields": {
      "guid": "5289f8a2-cf93-4ada-b5e2-aa013b73c7d6",
      
      "name": "Quva tumani",
      "region": "3",
      "name_ru": "Кувинский район",
      "name_uz": "Quva tumani"
    }
  },
  {
    "model": "common.District",
    "pk": "42",
    "fields": {
      "guid": "7592eae3-c90e-4e6d-90c4-2bdbd3bb5602",
      "name": "Quvasoy shahri",
      "region": "3",
      "name_ru": "город Кувасай",
      "name_uz": "Quvasoy shahri"
    }
  },
  {
    "model": "common.District",
    "pk": "43",
    "fields": {
      "guid": "ca839077-940e-4c3d-a82f-1d6794b856ac",
      "name": "Rishton tumani",
      "region": "3",
      "name_ru": "Риштанский район",
      "name_uz": "Rishton tumani"
    }
  },
  {
    "model": "common.District",
    "pk": "44",
    "fields": {
      "guid": "7466fc0f-c872-4038-9301-962384522149",
      "name": "So'x tumani",
      "region": "3",
      "name_ru": "Сохский район",
      "name_uz": "So'x tumani"
    }
  },
  {
    "model": "common.District",
    "pk": "45",
    "fields": {
      "guid": "83d186f8-3b8c-426c-a024-49beda0ac980",
      "name": "Toshloq tumani",
      "region": "3",
      "name_ru": "Ташлакский район",
      "name_uz": "Toshloq tumani"
    }
  },
  {
    "model": "common.District",
    "pk": "46",
    "fields": {
      "guid": "57b8bba8-50d2-4dea-ac34-4d0f88045353",
      "name": "Uchko'prik tumani",
      "region": "3",
      "name_ru": "Учкуприкский район",
      "name_uz": "Uchko'prik tumani"
    }
  },
  {
    "model": "common.District",
    "pk": "47",
    "fields": {
      "guid": "68465365-34ad-47b8-be03-0d6208d3bbd5",
      "name": "O'zbekiston tumani",
      "region": "3",
      "name_ru": "Узбекистанский район",
      "name_uz": "O'zbekiston tumani"
    }
  },
  {
    "model": "common.District",
    "pk": "48",
    "fields": {
      "guid": "42f5af04-0e1c-4603-b1a6-70ed56a37687",
      "name": "Yozyovon tumani",
      "region": "3",
      "name_ru": "Язъяванский район",
      "name_uz": "Yozyovon tumani"
    }
  },
  {
    "model": "common.District",
    "pk": "49",
    "fields": {
      "guid": "63f31178-a176-4197-9de1-0f97de5d9086",
      "name": "Arnasoy tumani",
      "region": "4",
      "name_ru": "Aрнасайский район",
      "name_uz": "Arnasoy tumani"
    }
  },
  {
    "model": "common.District",
    "pk": "50",
    "fields": {
      "guid": "ae487025-f4d8-4bfa-a2d5-59aaa041ec01",
      "name": "Baxmal tumani",
      "region": "4",
      "name_ru": "Бахмальский район",
      "name_uz": "Baxmal tumani"
    }
  },
  {
    "model": "common.District",
    "pk": "51",
    "fields": {
      "guid": "e930eac9-5acd-49fa-a2c5-f4e47c754298",
      "name": "Do'stlik tumani",
      "region": "4",
      "name_ru": "Дустликский район",
      "name_uz": "Do'stlik tumani"
    }
  },
  {
    "model": "common.District",
    "pk": "52",
    "fields": {
      "guid": "58da1501-9385-49be-bf8c-9cf045de0759",
      "name": "Forish tumani",
      "region": "4",
      "name_ru": "Фаришский район",
      "name_uz": "Forish tumani"
    }
  },
  {
    "model": "common.District",
    "pk": "53",
    "fields": {
      "guid": "6d25c375-c156-4439-bd60-85521a38809e",
      
      "name": "G'allaorol tumani",
      "region": "4",
      "name_ru": "Галляаральский район",
      "name_uz": "G'allaorol tumani"
    }
  },
  {
    "model": "common.District",
    "pk": "54",
    "fields": {
      "guid": "420fbaf9-c7a7-4bf9-95d7-daae32d19710",
      "name": "Jizzax shahri",
      "region": "4",
      "name_ru": "город Джизак",
      "name_uz": "Jizzax shahri"
    }
  },
  {
    "model": "common.District",
    "pk": "55",
    "fields": {
      "guid": "68af93a1-d779-4dc3-8750-b6d7662c8b7c",
      "name": "Mirzacho'l tumani",
      "region": "4",
      "name_ru": "Мирзачульский район",
      "name_uz": "Mirzacho'l tumani"
    }
  },
  {
    "model": "common.District",
    "pk": "56",
    "fields": {
      "guid": "a15dc795-c5c7-4dd9-a507-6c1be64dd762",      "name": "Paxtakor tumani",
      "region": "4",
      "name_ru": "Пахтакорский район",
      "name_uz": "Paxtakor tumani"
    }
  },
  {
    "model": "common.District",
    "pk": "57",
    "fields": {
      "guid": "6876cfac-c874-4d51-a4f5-ddba4b58feb6",
      "name": "Sharof Rashidov tumani",
      "region": "4",
      "name_ru": "Шараф Рашидовский район",
      "name_uz": "Sharof Rashidov tumani"
    }
  },
  {
    "model": "common.District",
    "pk": "58",
    "fields": {
      "guid": "2ae8bfba-8d04-46d9-a044-1b537d19f737",
      "name": "Yangiobod tumani",
      "region": "4",
      "name_ru": "Янгиабадский район",
      "name_uz": "Yangiobod tumani"
    }
  },
  {
    "model": "common.District",
    "pk": "59",
    "fields": {
      "guid": "e3be0169-0aa5-4685-a193-014ffc64620b",
      "name": "Zafarobod tumani",
      "region": "4",
      "name_ru": "Зафарабадский район",
      "name_uz": "Zafarobod tumani"
    }
  },
  {
    "model": "common.District",
    "pk": "60",
    "fields": {
      "guid": "7834e351-3c9a-4ab8-8e3e-06119c8ce5f0",
      "name": "Zarbdor tumani",
      "region": "4",
      "name_ru": "Зарбдарский район",
      "name_uz": "Zarbdor tumani"
    }
  },
  {
    "model": "common.District",
    "pk": "61",
    "fields": {
      "guid": "679765bd-acf1-42e3-8be2-763dc2843b46",
      "name": "Zomin tumani",
      "region": "4",
      "name_ru": "Зааминский район",
      "name_uz": "Zomin tumani"
    }
  },
  {
    "model": "common.District",
    "pk": "62",
    "fields": {
      "guid": "bb24f830-b252-44cf-bfda-4b761ad374ae",
      "name": "Bo’ston shahrchasi",
      "region": "4",
      "name_ru": "Бостанский городок",
      "name_uz": "Bo’ston shahrchasi"
    }
  },
  {
    "model": "common.District",
    "pk": "63",
    "fields": {
      "guid": "1d37c21a-0df6-444e-832b-dbb43a345397",
      "name": "Chiroqchi tumani",
      "region": "5",
      "name_ru": "Чиракчинский район",
      "name_uz": "Chiroqchi tumani"
    }
  },
  {
    "model": "common.District",
    "pk": "64",
    "fields": {
      "guid": "d5bf24fb-4c54-40cd-ba86-d4fba0da352b",
      "name": "Dehqonobod tumani",
      "region": "5",
      "name_ru": "Дехканабадский район",
      "name_uz": "Dehqonobod tumani"
    }
  },
  {
    "model": "common.District",
    "pk": "65",
    "fields": {
      "guid": "11ec1532-563d-422b-a99d-739151cb606e",
      "name": "G'uzor tumani",
      "region": "5",
      "name_ru": "Гузарский район",
      "name_uz": "G'uzor tumani"
    }
  },
  {
    "model": "common.District",
    "pk": "66",
    "fields": {
      "guid": "582a06f8-0c23-4fe7-a4bf-fb6b41df0e3f",
      
      "name": "Kasbi tumani",
      "region": "5",
      "name_ru": "Касбийский район",
      "name_uz": "Kasbi tumani"
    }
  },
  {
    "model": "common.District",
    "pk": "67",
    "fields": {
      "guid": "2f82f06b-3a87-403b-8130-553a2c2113ad",
      "name": "Kitob tumani",
      "region": "5",
      "name_ru": "Китабский район",
      "name_uz": "Kitob tumani"
    }
  },
  {
    "model": "common.District",
    "pk": "68",
    "fields": {
      "guid": "683b0473-8b43-42d7-89a7-67b1619567bc",
      "name": "Koson tumani",
      "region": "5",
      "name_ru": "Касанский район",
      "name_uz": "Koson tumani"
    }
  },
  {
    "model": "common.District",
    "pk": "69",
    "fields": {
      "guid": "d4ce7613-2a6b-49a1-99c9-0d40f4b15071",
      "name": "Mirishkor tumani",
      "region": "5",
      "name_ru": "Миришкорский район",
      "name_uz": "Mirishkor tumani"
    }
  },
  {
    "model": "common.District",
    "pk": "70",
    "fields": {
      "guid": "ff9c7531-cd61-4adc-b70b-f3ddc8565738",
      "name": "Muborak tumani",
      "region": "5",
      "name_ru": "Мубарекский район",
      "name_uz": "Muborak tumani"
    }
  },
  {
    "model": "common.District",
    "pk": "71",
    "fields": {
      "guid": "52131fa4-2bee-4859-8ad7-3c3c6824fe22",
      "name": "Nishon tumani",
      "region": "5",
      "name_ru": "Нишанский район",
      "name_uz": "Nishon tumani"
    }
  },
  {
    "model": "common.District",
    "pk": "72",
    "fields": {
      "guid": "15ed987e-fb52-4c59-aed4-19715b7179bf",
      "name": "Qamashi tumani",
      "region": "5",
      "name_ru": "Камашинский район",
      "name_uz": "Qamashi tumani"
    }
  },
  {
    "model": "common.District",
    "pk": "73",
    "fields": {
      "guid": "c7f5bb49-d096-48e0-adc5-8b857f6a035a",
      "name": "Qarshi shahri",
      "region": "5",
      "name_ru": "город Карши",
      "name_uz": "Qarshi shahri"
    }
  },
  {
    "model": "common.District",
    "pk": "74",
    "fields": {
      "guid": "45c00d2f-5c95-498e-aece-fbd9617a6cb8",      "name": "Qarshi tumani",
      "region": "5",
      "name_ru": "Каршинский район",
      "name_uz": "Qarshi tumani"
    }
  },
  {
    "model": "common.District",
    "pk": "75",
    "fields": {
      "guid": "6e5bd78d-dd3b-42df-86be-d6d589da614c",
      "name": "Shaxrisabz shahri",
      "region": "5",
      "name_ru": "город Шахрисабз",
      "name_uz": "Shaxrisabz shahri"
    }
  },
  {
    "model": "common.District",
    "pk": "76",
    "fields": {
      "guid": "43707de8-ed16-460e-be0c-63aa1aa44cda",
      "name": "Shahrisabz tumani",
      "region": "5",
      "name_ru": "Шахрисабзский район",
      "name_uz": "Shahrisabz tumani"
    }
  },
  {
    "model": "common.District",
    "pk": "77",
    "fields": {
      "guid": "f212d5b0-f50b-415e-a776-df43f8d00b2c",      "name": "Yakkabog' tumani",
      "region": "5",
      "name_ru": "Яккабагский район",
      "name_uz": "Yakkabog' tumani"
    }
  },
  {
    "model": "common.District",
    "pk": "78",
    "fields": {
      "guid": "679f285b-a713-4d39-88a8-b1889eb8ac81",
      "name": "Bog'ot tumani",
      "region": "6",
      "name_ru": "Багатский район",
      "name_uz": "Bog'ot tumani"
    }
  },
  {
    "model": "common.District",
    "pk": "79",
    "fields": {
      "guid": "75c648ed-cd3b-4aed-a233-f4843722f405",
      "name": "Gurlan tumani",
      "region": "6",
      "name_ru": "Гурленский район",
      "name_uz": "Gurlan tumani"
    }
  },
  {
    "model": "common.District",
    "pk": "80",
    "fields": {
      "guid": "8f436b8f-7d6d-4291-886e-e7eda930a105",      "name": "Xazorasp tumani",
      "region": "6",
      "name_ru": "Хазараспский район",
      "name_uz": "Xazorasp tumani"
    }
  },
  {
    "model": "common.District",
    "pk": "81",
    "fields": {
      "guid": "377a2302-97b4-41ff-a815-8d54dcf4d6c7",
      "name": "Xiva shahri",
      "region": "6",
      "name_ru": "город Хива",
      "name_uz": "Xiva shahri"
    }
  },
  {
    "model": "common.District",
    "pk": "82",
    "fields": {
      "guid": "ce5a060d-913e-48d0-9ece-653029ad8f14",
      "name": "Xiva tumani",
      "region": "6",
      "name_ru": "Хивинский район",
      "name_uz": "Xiva tumani"
    }
  },
  {
    "model": "common.District",
    "pk": "83",
    "fields": {
      "guid": "920490ca-0239-4958-b4a8-ec76ad21dfa0",
      "name": "Xonqa tumani",
      "region": "6",
      "name_ru": "Ханкинский район",
      "name_uz": "Xonqa tumani"
    }
  },
  {
    "model": "common.District",
    "pk": "84",
    "fields": {
      "guid": "fb662e9a-62de-4cd0-a837-b26834235837",
      "name": "Qo'shko'pir tumani",
      "region": "6",
      "name_ru": "Кошкупырский район",
      "name_uz": "Qo'shko'pir tumani"
    }
  },
  {
    "model": "common.District",
    "pk": "85",
    "fields": {
      "guid": "ab930660-b0ff-4557-868a-7e3d8cf24c16",
      "name": "Shovot tumani",
      "region": "6",
      "name_ru": "Шаватский район",
      "name_uz": "Shovot tumani"
    }
  },
  {
    "model": "common.District",
    "pk": "86",
    "fields": {
      "guid": "f1bd4b70-f1ff-4061-a1e9-2a3e0946532f",      "name": "Tuproqqal'a tumani",
      "region": "6",
      "name_ru": "Тупроккалинский район",
      "name_uz": "Tuproqqal'a tumani"
    }
  },
  {
    "model": "common.District",
    "pk": "87",
    "fields": {
      "guid": "49865ad5-a14e-4dde-b377-ad37fbbff5da",
      "name": "Urganch shahri",
      "region": "6",
      "name_ru": "город Ургенч",
      "name_uz": "Urganch shahri"
    }
  },
  {
    "model": "common.District",
    "pk": "88",
    "fields": {
      "guid": "d84991a8-e6a0-46e5-8528-6b7a25770577",
      "name": "Urganch tumani",
      "region": "6",
      "name_ru": "Ургенчский район",
      "name_uz": "Urganch tumani"
    }
  },
  {
    "model": "common.District",
    "pk": "89",
    "fields": {
      "guid": "d6e114ca-b2cd-4a9c-aaa4-53f68fcfd029",
      "name": "Yangiariq tumani",
      "region": "6",
      "name_ru": "Янгиарыкский район",
      "name_uz": "Yangiariq tumani"
    }
  },
  {
    "model": "common.District",
    "pk": "90",
    "fields": {
      "guid": "339baadc-1297-457d-8224-f628e0ed78d8",
      "name": "Yangibozor tumani",
      "region": "6",
      "name_ru": "Янгибазарский район",
      "name_uz": "Yangibozor tumani"
    }
  },
  {
    "model": "common.District",
    "pk": "91",
    "fields": {
      "guid": "32260239-c35a-4935-9511-a6df64fe5f55",
      "name": "Chortoq tumani",
      "region": "7",
      "name_ru": "Чартакский район",
      "name_uz": "Chortoq tumani"
    }
  },
  {
    "model": "common.District",
    "pk": "92",
    "fields": {
      "guid": "e7c5d648-a8d9-4f02-b258-553bb41efdc4",
      "name": "Chust tumani",
      "region": "7",
      "name_ru": "Чустский район",
      "name_uz": "Chust tumani"
    }
  },
  {
    "model": "common.District",
    "pk": "93",
    "fields": {
      "guid": "e97b060a-1254-4ebd-876d-ebf76780a818",
      "name": "Kosonsoy tumani",
      "region": "7",
      "name_ru": "Касансайский район",
      "name_uz": "Kosonsoy tumani"
    }
  },
  {
    "model": "common.District",
    "pk": "94",
    "fields": {
      "guid": "47931b84-cbc2-489e-8e22-02edf65000ce",
      "name": "Mingbuloq tumani",
      "region": "7",
      "name_ru": "Мингбулакский район",
      "name_uz": "Mingbuloq tumani"
    }
  },
  {
    "model": "common.District",
    "pk": "95",
    "fields": {
      "guid": "a92bd9f0-a901-42a5-91e4-8dee76b41d4e",
      "name": "Namangan shahri",
      "region": "7",
      "name_ru": "город Наманган",
      "name_uz": "Namangan shahri"
    }
  },
  {
    "model": "common.District",
    "pk": "96",
    "fields": {
      "guid": "3e9b78d5-6d0f-4716-bd5f-11cafcb53aa6",
      "name": "Namangan tumani",
      "region": "7",
      "name_ru": "Наманганский район",
      "name_uz": "Namangan tumani"
    }
  },
  {
    "model": "common.District",
    "pk": "97",
    "fields": {
      "guid": "b1a2ed7f-b52c-4d94-9b4f-3cffd4dd4952",
      "name": "Norin tumani",
      "region": "7",
      "name_ru": "Нарынский район",
      "name_uz": "Norin tumani"
    }
  },
  {
    "model": "common.District",
    "pk": "98",
    "fields": {
      "guid": "988ed123-8ff4-4c1f-82ec-eef550cf349b",
      "name": "Pop tumani",
      "region": "7",
      "name_ru": "Папский район",
      "name_uz": "Pop tumani"
    }
  },
  {
    "model": "common.District",
    "pk": "99",
    "fields": {
      "guid": "dee4ac1c-21f6-4777-a40e-c860689730bb",
      "name": "Turaqo'rg'on tumani",
      "region": "7",
      "name_ru": "Туракурганский район",
      "name_uz": "Turaqo'rg'on tumani"
    }
  },
  {
    "model": "common.District",
    "pk": "100",
    "fields": {
      "guid": "0aadd512-4b98-4bd0-b7e6-f3d0ff02f20b",
      "name": "Uchqo'rg'on tumani",
      "region": "7",
      "name_ru": "Учкурганский район",
      "name_uz": "Uchqo'rg'on tumani"
    }
  },
  {
    "model": "common.District",
    "pk": "101",
    "fields": {
      "guid": "9eca779a-c121-4902-abd0-933b1c8657cb",
      "name": "Uychi tumani",
      "region": "7",
      "name_ru": "Уйчинский район",
      "name_uz": "Uychi tumani"
    }
  },
  {
    "model": "common.District",
    "pk": "102",
    "fields": {
      "guid": "6b54865f-2a98-43e2-b818-51112b8fae47",
      "name": "Yangiqo'rg'on tumani",
      "region": "7",
      "name_ru": "Янгикурганский район",
      "name_uz": "Yangiqo'rg'on tumani"
    }
  },
  {
    "model": "common.District",
    "pk": "103",
    "fields": {
      "guid": "d6d89913-ef71-4fcf-8cfb-a88f9f420359",
      "name": "G'ozg'on shahri",
      "region": "8",
      "name_ru": "город Газган ",
      "name_uz": "G'ozg'on shahri"
    }
  },
  {
    "model": "common.District",
    "pk": "104",
    "fields": {
      "guid": "6d052578-413a-4d54-9451-f47cc44ecb00",
      
      "name": "Karmana tumani",
      "region": "8",
      "name_ru": "Карманинский район",
      "name_uz": "Karmana tumani"
    }
  },
  {
    "model": "common.District",
    "pk": "105",
    "fields": {
      "guid": "78db3c0b-aa68-40aa-8376-5d596a63ba38",
      "name": "Xatirchi tumani",
      "region": "8",
      "name_ru": "Хатырчинский район",
      "name_uz": "Xatirchi tumani"
    }
  },
  {
    "model": "common.District",
    "pk": "106",
    "fields": {
      "guid": "b7f16f29-34f8-49e1-9d79-6fe0cb6368f0",
      "name": "Konimex tumani",
      "region": "8",
      "name_ru": "Канимехский район",
      "name_uz": "Konimex tumani"
    }
  },
  {
    "model": "common.District",
    "pk": "107",
    "fields": {
      "guid": "4b7e4d0a-7aa9-4192-a8a3-8c4dc72a7ed2",
    
      "name": "Navbahor tumani",
      "region": "8",
      "name_ru": "Навбахорский район",
      "name_uz": "Navbahor tumani"
    }
  },
  {
    "model": "common.District",
    "pk": "108",
    "fields": {
      "guid": "9648e959-e8f5-4815-b027-e05160c2c7d0",
      "name": "Navoiy shahri",
      "region": "8",
      "name_ru": "город Навои",
      "name_uz": "Navoiy shahri"
    }
  },
  {
    "model": "common.District",
    "pk": "109",
    "fields": {
      "guid": "4b0e0f7f-f09a-4953-b544-e52a846e834c",
      "name": "Nurota tumani",
      "region": "8",
      "name_ru": "Нуратинский район",
      "name_uz": "Nurota tumani"
    }
  },
  {
    "model": "common.District",
    "pk": "110",
    "fields": {
      "guid": "15570a24-53fa-42dd-8b27-5663470dc2dd",
      
      "name": "Qiziltepa tumani",
      "region": "8",
      "name_ru": "Кызылтепинский район",
      "name_uz": "Qiziltepa tumani"
    }
  },
  {
    "model": "common.District",
    "pk": "111",
    "fields": {
      "guid": "6981a84f-8839-4f22-b9a5-324c7487146d",
    
      "name": "Tomdi tumani",
      "region": "8",
      "name_ru": "Тамдынский район",
      "name_uz": "Tomdi tumani"
    }
  },
  {
    "model": "common.District",
    "pk": "112",
    "fields": {
      "guid": "0d3e64c1-5659-478d-b743-721863f1f4a9",
      "name": "Uchquduq tumani",
      "region": "8",
      "name_ru": "Учкудукский район",
      "name_uz": "Uchquduq tumani"
    }
  },
  {
    "model": "common.District",
    "pk": "113",
    "fields": {
      "guid": "2bc117a2-f663-4ed2-b5ff-86644af9eca8",
      "name": "Zarafshon shahri",
      "region": "8",
      "name_ru": "город Зарафшан",
      "name_uz": "Zarafshon shahri"
    }
  },
  {
    "model": "common.District",
    "pk": "114",
    "fields": {
      "guid": "24510fb5-45d4-4adf-b555-2d43e3526f25",
      "name": "Beruniy tumani",
      "region": "9",
      "name_ru": "Берунийский район",
      "name_uz": "Beruniy tumani"
    }
  },
  {
    "model": "common.District",
    "pk": "115",
    "fields": {
      "guid": "6ce63d72-a847-470d-a2c9-2091f4210bc4",
      "name": "Chimboy tumani",
      "region": "9",
      "name_ru": "Чимбайский район",
      "name_uz": "Chimboy tumani"
    }
  },
  {
    "model": "common.District",
    "pk": "116",
    "fields": {
      "guid": "78abcf7e-a568-44e6-adb4-663c9ef291de",
      "name": "Ellikqal'a tumani",
      "region": "9",
      "name_ru": "Элликкалинский район",
      "name_uz": "Ellikqal'a tumani"
    }
  },
  {
    "model": "common.District",
    "pk": "117",
    "fields": {
      "guid": "852b7766-0fb9-4944-9388-c78c7841f93e",
      "name": "Kegayli tumani",
      "region": "9",
      "name_ru": "Кегейлийский район",
      "name_uz": "Kegayli tumani"
    }
  },
  {
    "model": "common.District",
    "pk": "118",
    "fields": {
      "guid": "c2c8d5d3-a94c-45bb-9340-1e244a5311bb",
      "name": "Xojayli tumani",
      "region": "9",
      "name_ru": "Ходжейлийский район",
      "name_uz": "Xojayli tumani"
    }
  },
  {
    "model": "common.District",
    "pk": "119",
    "fields": {
      "guid": "4ee9daa1-d01a-46c6-b3d3-fc8c68bf02a8",
      "name": "Mo'ynoq tumani",
      "region": "9",
      "name_ru": "Муйнакский район",
      "name_uz": "Mo'ynoq tumani"
    }
  },
  {
    "model": "common.District",
    "pk": "120",
    "fields": {
      "guid": "4a18b9da-881a-44ef-b2ae-0c41c9604b7f",
      "name": "Nukus shahri",
      "region": "9",
      "name_ru": "город Нукус",
      "name_uz": "Nukus shahri"
    }
  },
  {
    "model": "common.District",
    "pk": "121",
    "fields": {
      "guid": "1d3f0a5f-9bca-4cd4-8a0d-4b4a133b27f4",
      "name": "Nukus tumani",
      "region": "9",
      "name_ru": "Нукусский район",
      "name_uz": "Nukus tumani"
    }
  },
  {
    "model": "common.District",
    "pk": "122",
    "fields": {
      "guid": "4c658f16-24c2-4104-92f3-6a8b4b457730",
      "name": "Qarao'zak tumani",
      "region": "9",
      "name_ru": "Караузякский район",
      "name_uz": "Qarao'zak tumani"
    }
  },
  {
    "model": "common.District",
    "pk": "123",
    "fields": {
      "guid": "821f61f3-4cc6-49e5-8ce2-c450c40eac80",
      "name": "Qo'ng'irot tumani",
      "region": "9",
      "name_ru": "Кунградский район",
      "name_uz": "Qo'ng'irot tumani"
    }
  },
  {
    "model": "common.District",
    "pk": "124",
    "fields": {
      "guid": "ea3f4f1f-bb84-4623-afce-bb8085c20f0a",
      "name": "Qonliko'l tumani",
      "region": "9",
      "name_ru": "Канлыкульский район",
      "name_uz": "Qonliko'l tumani"
    }
  },
  {
    "model": "common.District",
    "pk": "125",
    "fields": {
      "guid": "4468fa92-c816-45b3-ab05-645b98e8755a",
      "name": "Shumanay tumani",
      "region": "9",
      "name_ru": "Шуманайский район",
      "name_uz": "Shumanay tumani"
    }
  },
  {
    "model": "common.District",
    "pk": "126",
    "fields": {
      "guid": "3561bacf-a854-4a24-ad91-036cfdc9b75a",
      
      "name": "Taxtako'pir tumani",
      "region": "9",
      "name_ru": "Тахтакупырский район",
      "name_uz": "Taxtako'pir tumani"
    }
  },
  {
    "model": "common.District",
    "pk": "127",
    "fields": {
      "guid": "7011919e-0cd1-4938-b697-68eb9302d536",
      "name": "To'rtko'l tumani",
      "region": "9",
      "name_ru": "Турткульский район",
      "name_uz": "To'rtko'l tumani"
    }
  },
  {
    "model": "common.District",
    "pk": "128",
    "fields": {
      "guid": "a1129f65-a73e-4723-bec2-d142cdafe238",
      "name": "Amudaryo tumani",
      "region": "9",
      "name_ru": "Aмударьинский район",
      "name_uz": "Amudaryo tumani"
    }
  },
  {
    "model": "common.District",
    "pk": "129",
    "fields": {
      "guid": "2b5d5ab5-571f-43dd-82f5-c4709c36f918",
      "name": "Bo'zatov tumani",
      "region": "9",
      "name_ru": "Бозатауский район",
      "name_uz": "Bo'zatov tumani"
    }
  },
  {
    "model": "common.District",
    "pk": "130",
    "fields": {
      "guid": "b013afff-5ccd-42b7-a295-e0a8380425bd",
      "name": "Taxiatosh tumani",
      "region": "9",
      "name_ru": "Тахиаташский район",
      "name_uz": "Taxiatosh tumani"
    }
  },
  {
    "model": "common.District",
    "pk": "131",
    "fields": {
      "guid": "ab8fc22c-a873-49d9-81cc-6b5127e1227f",
      "name": "Bulung'ur tumani",
      "region": "10",
      "name_ru": "Булунгурский район",
      "name_uz": "Bulung'ur tumani"
    }
  },
  {
    "model": "common.District",
    "pk": "132",
    "fields": {
      "guid": "d49bda8d-336c-417b-803d-532a8aa43207",
      "name": "Ishtixon tumani",
      "region": "10",
      "name_ru": "Иштыханский район",
      "name_uz": "Ishtixon tumani"
    }
  },
  {
    "model": "common.District",
    "pk": "133",
    "fields": {
      "guid": "a863bd47-7717-4602-9d47-16839d057050",
      "name": "Jomboy tumani",
      "region": "10",
      "name_ru": "Джамбайский район",
      "name_uz": "Jomboy tumani"
    }
  },
  {
    "model": "common.District",
    "pk": "134",
    "fields": {
      "guid": "3f9bf3b8-f03a-444f-8237-09f3fdd3fa44",
      "name": "Kattaqo'rg'on shahri",
      "region": "10",
      "name_ru": "город Каттакурган",
      "name_uz": "Kattaqo'rg'on shahri"
    }
  },
  {
    "model": "common.District",
    "pk": "135",
    "fields": {
      "guid": "8f5b3e16-bd4b-4c9e-aa2d-01664985684a",
      "name": "Kattaqo'rg'on tumani",
      "region": "10",
      "name_ru": "Каттакурганский район",
      "name_uz": "Kattaqo'rg'on tumani"
    }
  },
  {
    "model": "common.District",
    "pk": "136",
    "fields": {
      "guid": "a5348d14-335b-463d-b9d4-8158e862c10f",
      "name": "Narpay tumani",
      "region": "10",
      "name_ru": "Нарпайский район",
      "name_uz": "Narpay tumani"
    }
  },
  {
    "model": "common.District",
    "pk": "137",
    "fields": {
      "guid": "fb15b70b-d3c9-4d50-b49f-10c8baa5e6ab",      "name": "Nurobod tumani",
      "region": "10",
      "name_ru": "Нурабадский район",
      "name_uz": "Nurobod tumani"
    }
  },
  {
    "model": "common.District",
    "pk": "138",
    "fields": {
      "guid": "c25ba3ab-a642-47d9-b270-a044804c09a5",      "name": "Oqdaryo tumani",
      "region": "10",
      "name_ru": "Aкдарьинский район",
      "name_uz": "Oqdaryo tumani"
    }
  },
  {
    "model": "common.District",
    "pk": "139",
    "fields": {
      "guid": "16e0941e-4728-420d-b111-9bae29f2d781",      "name": "Paxtachi tumani",
      "region": "10",
      "name_ru": "Пахтачийский район",
      "name_uz": "Paxtachi tumani"
    }
  },
  {
    "model": "common.District",
    "pk": "140",
    "fields": {
      "guid": "aace0c18-4350-46b7-a975-3a4ce20ad2df",
      "name": "Pastdarg'om tumani",
      "region": "10",
      "name_ru": "Пастдаргомский район",
      "name_uz": "Pastdarg'om tumani"
    }
  },
  {
    "model": "common.District",
    "pk": "141",
    "fields": {
      "guid": "29a5ea27-14ff-454a-9c1b-2dce126f2e58",
      "name": "Payariq tumani",
      "region": "10",
      "name_ru": "Пайарыкский район",
      "name_uz": "Payariq tumani"
    }
  },
  {
    "model": "common.District",
    "pk": "142",
    "fields": {
      "guid": "8f7059f8-18f5-47ad-aaab-d1226b0d221b",
      "name": "Qo'shrabod tumani",
      "region": "10",
      "name_ru": "Кошрабадский район",
      "name_uz": "Qo'shrabod tumani"
    }
  },
  {
    "model": "common.District",
    "pk": "143",
    "fields": {
      "guid": "78251971-1ee4-42a9-a2c6-1a9a82af912a",
      "name": "Samarqand shahri",
      "region": "10",
      "name_ru": "город Самарканд",
      "name_uz": "Samarqand shahri"
    }
  },
  {
    "model": "common.District",
    "pk": "144",
    "fields": {
      "guid": "09209579-9704-456d-9c4b-ebccc458bf80",
      "name": "Samarqand tumani",
      "region": "10",
      "name_ru": "Самаркандский район",
      "name_uz": "Samarqand tumani"
    }
  },
  {
    "model": "common.District",
    "pk": "145",
    "fields": {
      "guid": "386fc79a-558d-4bb2-9d82-24701247c695",
      "name": "Toyloq tumani",
      "region": "10",
      "name_ru": "Тайлакский район",
      "name_uz": "Toyloq tumani"
    }
  },
  {
    "model": "common.District",
    "pk": "146",
    "fields": {
      "guid": "63f897a0-267b-4c57-aa26-56306a5135e2",
      "name": "Urgut tumani",
      "region": "10",
      "name_ru": "Ургутский район",
      "name_uz": "Urgut tumani"
    }
  },
  {
    "model": "common.District",
    "pk": "147",
    "fields": {
      "guid": "efa15a57-0b56-46e2-9483-42adac4d905c",
      
      "name": "Boysun tumani",
      "region": "11",
      "name_ru": "Байсунский район",
      "name_uz": "Boysun tumani"
    }
  },
  {
    "model": "common.District",
    "pk": "148",
    "fields": {
      "guid": "6e527fdc-e167-45f6-b168-5e191dcf4d33",
      "name": "Denov tumani",
      "region": "11",
      "name_ru": "Денауский район",
      "name_uz": "Denov tumani"
    }
  },
  {
    "model": "common.District",
    "pk": "149",
    "fields": {
      "guid": "3b216575-2134-4d09-ab39-49d4bc6213a5",
      
      "name": "Jarqo'rg'on tumani",
      "region": "11",
      "name_ru": "Джаркурганский район",
      "name_uz": "Jarqo'rg'on tumani"
    }
  },
  {
    "model": "common.District",
    "pk": "150",
    "fields": {
      "guid": "8ac7a623-7ebc-40bd-9e91-de2d3eb1fa08",
      "name": "Muzrobod tumani",
      "region": "11",
      "name_ru": "Музрабадский район",
      "name_uz": "Muzrobod tumani"
    }
  },
  {
    "model": "common.District",
    "pk": "151",
    "fields": {
      "guid": "dfc723b5-d15f-4318-af25-3670eb9b7d17",
      "name": "Oltinsoy tumani",
      "region": "11",
      "name_ru": "Aлтынсайский район",
      "name_uz": "Oltinsoy tumani"
    }
  },
  {
    "model": "common.District",
    "pk": "152",
    "fields": {
      "guid": "5f93beb1-594a-4e80-80f2-11882d447144",
      "name": "Qiziriq tumani",
      "region": "11",
      "name_ru": "Кизирикский район",
      "name_uz": "Qiziriq tumani"
    }
  },
  {
    "model": "common.District",
    "pk": "153",
    "fields": {
      "guid": "bb19811f-5fa9-4343-964c-2c2351d8ab43",
      "name": "Qumqo'rg'on tumani",
      "region": "11",
      "name_ru": "Кумкурганский район",
      "name_uz": "Qumqo'rg'on tumani"
    }
  },
  {
    "model": "common.District",
    "pk": "154",
    "fields": {
      "guid": "fe7cba46-c09a-4bb9-b46c-0f3941d41fc1",      "name": "Sariosiyo tumani",
      "region": "11",
      "name_ru": "Сариасийский район",
      "name_uz": "Sariosiyo tumani"
    }
  },
  {
    "model": "common.District",
    "pk": "155",
    "fields": {
      "guid": "290d7808-5201-4dbb-a60c-6d571f2c8018",
      "name": "Sherobod tumani",
      "region": "11",
      "name_ru": "Шерабадский район",
      "name_uz": "Sherobod tumani"
    }
  },
  {
    "model": "common.District",
    "pk": "156",
    "fields": {
      "guid": "5d381064-5238-45b5-9088-3152f61e1032",
      "name": "Sho'rchi tumani",
      "region": "11",
      "name_ru": "Шурчинский район",
      "name_uz": "Sho'rchi tumani"
    }
  },
  {
    "model": "common.District",
    "pk": "157",
    "fields": {
      "guid": "5b689b4f-17ff-40ac-92e2-6e8a73c2ac68",
      "name": "Termiz shahri",
      "region": "11",
      "name_ru": "город Термез",
      "name_uz": "Termiz shahri"
    }
  },
  {
    "model": "common.District",
    "pk": "158",
    "fields": {
      "guid": "402d36bb-8873-44e5-abaa-5f8edb32b8ff",
      "name": "Termiz tumani",
      "region": "11",
      "name_ru": "Термезский район",
      "name_uz": "Termiz tumani"
    }
  },
  {
    "model": "common.District",
    "pk": "159",
    "fields": {
      "guid": "aae314be-c152-4edd-892a-b5faffa80fcf",
      "name": "Uzun tumani",
      "region": "11",
      "name_ru": "Узунский район",
      "name_uz": "Uzun tumani"
    }
  },
  {
    "model": "common.District",
    "pk": "160",
    "fields": {
      "guid": "979db50f-0ccf-47b0-a17c-33f9c9826219",
      "name": "Angor tumani",
      "region": "11",
      "name_ru": "Aнгорский район",
      "name_uz": "Angor tumani"
    }
  },
  {
    "model": "common.District",
    "pk": "161",
    "fields": {
      "guid": "22fd77c8-9c04-4ef0-8a89-3517765e021d",
      "name": "Bandixon tumani",
      "region": "11",
      "name_ru": "Бандиханский район",
      "name_uz": "Bandixon tumani"
    }
  },
  {
    "model": "common.District",
    "pk": "162",
    "fields": {
      "guid": "8351d82e-6bae-4bf5-8e8b-f367f9926bd2",
    
      "name": "Boyovut tumani",
      "region": "12",
      "name_ru": "Баяутский район",
      "name_uz": "Boyovut tumani"
    }
  },
  {
    "model": "common.District",
    "pk": "163",
    "fields": {
      "guid": "9a33acc5-26e0-42f7-aaa4-41c21c6e6fc0",
      "name": "Guliston shahri",
      "region": "12",
      "name_ru": "город Гулистан",
      "name_uz": "Guliston shahri"
    }
  },
  {
    "model": "common.District",
    "pk": "164",
    "fields": {
      "guid": "1c76ef2b-a79f-4395-ac0a-1137cd7f5d75",
      "name": "Guliston tumani",
      "region": "12",
      "name_ru": "Гулистанский район",
      "name_uz": "Guliston tumani"
    }
  },
  {
    "model": "common.District",
    "pk": "165",
    "fields": {
      "guid": "8f1ebb62-c691-48ed-9809-3c0319ef2491",
      "name": "Xovos tumani",
      "region": "12",
      "name_ru": "Хавастский район",
      "name_uz": "Xovos tumani"
    }
  },
  {
    "model": "common.District",
    "pk": "166",
    "fields": {
      "guid": "fd62c8f7-f9bb-4381-97a2-f338f93961f3",
      "name": "Mirzaobod tumani",
      "region": "12",
      "name_ru": "Мирзаабадский район",
      "name_uz": "Mirzaobod tumani"
    }
  },
  {
    "model": "common.District",
    "pk": "167",
    "fields": {
      "guid": "794ee23b-5ee4-4b2f-b302-9dafa0c19f47",
      "name": "Oqoltin tumani",
      "region": "12",
      "name_ru": "Aкалтынский район",
      "name_uz": "Oqoltin tumani"
    }
  },
  {
    "model": "common.District",
    "pk": "168",
    "fields": {
      "guid": "59399eca-c4f5-4442-859c-a1e7d8b94365",
      "name": "Sardoba tumani",
      "region": "12",
      "name_ru": "Сардобинский район",
      "name_uz": "Sardoba tumani"
    }
  },
  {
    "model": "common.District",
    "pk": "169",
    "fields": {
      "guid": "b63167c6-75fb-49d2-8e56-a1b719162906",
      "name": "Sayxunobod tumani",
      "region": "12",
      "name_ru": "Сайхунабадский район",
      "name_uz": "Sayxunobod tumani"
    }
  },
  {
    "model": "common.District",
    "pk": "170",
    "fields": {
      "guid": "669fcffb-b8d2-4e20-a8a0-f30d4404d0b2",     "name": "Shirin shahri",
      "region": "12",
      "name_ru": "город Ширин",
      "name_uz": "Shirin shahri"
    }
  },
  {
    "model": "common.District",
    "pk": "171",
    "fields": {
      "guid": "2521733e-3c7a-4257-9b0a-68e6d08f5fbc",
      "name": "Sirdaryo tumani",
      "region": "12",
      "name_ru": "Сырдарьинский район",
      "name_uz": "Sirdaryo tumani"
    }
  },
  {
    "model": "common.District",
    "pk": "172",
    "fields": {
      "guid": "f95fc4e1-249e-48cb-ad14-73c928a9cd03",
      
      "name": "Yangiyer shahri",
      "region": "12",
      "name_ru": "город Янгиер",
      "name_uz": "Yangiyer shahri"
    }
  },
  {
    "model": "common.District",
    "pk": "173",
    "fields": {
      "guid": "8f7a5c93-934d-4c1d-b616-df1a27c7bc29",
      "name": "Bektemir tumani",
      "region": "13",
      "name_ru": "Бектемирский район",
      "name_uz": "Bektemir tumani"
    }
  },
  {
    "model": "common.District",
    "pk": "174",
    "fields": {
      "guid": "51e005a2-8f01-4866-95f5-00509aa044c7",
      "name": "Chilonzor tumani",
      "region": "13",
      "name_ru": "Чиланзарский район",
      "name_uz": "Chilonzor tumani"
    }
  },
  {
    "model": "common.District",
    "pk": "175",
    "fields": {
      "guid": "cab84f85-6447-45eb-848c-eec61078b2d7",
      "name": "Mirobod tumani",
      "region": "13",
      "name_ru": "Мирабадский район",
      "name_uz": "Mirobod tumani"
    }
  },
  {
    "model": "common.District",
    "pk": "176",
    "fields": {
      "guid": "098e2bc9-771f-4877-b522-b577e557b8d9",
      "name": "Olmazor tumani",
      "region": "13",
      "name_ru": "Aлмазарский район",
      "name_uz": "Olmazor tumani"
    }
  },
  {
    "model": "common.District",
    "pk": "177",
    "fields": {
      "guid": "5d8b7814-9930-4c06-9b84-ff8eba20709f",
      "name": "Sergeli tumani",
      "region": "13",
      "name_ru": "Сергелинский район",
      "name_uz": "Sergeli tumani"
    }
  },
  {
    "model": "common.District",
    "pk": "178",
    "fields": {
      "guid": "5c77578d-b252-4c12-ae0e-465f84f4e13c",      "name": "Shayxontohur tumani",
      "region": "13",
      "name_ru": "Шайхантахурский район",
      "name_uz": "Shayxontohur tumani"
    }
  },
  {
    "model": "common.District",
    "pk": "179",
    "fields": {
      "guid": "72799e2c-bd44-47a5-a5dc-ecf32af99965",
      "name": "Uchtepa tumani",
      "region": "13",
      "name_ru": "Учтепинский район",
      "name_uz": "Uchtepa tumani"
    }
  },
  {
    "model": "common.District",
    "pk": "180",
    "fields": {
      "guid": "cc23d4ab-0aa3-4db4-abfe-7dca6d430760",
      "name": "Yakkasaroy tumani",
      "region": "13",
      "name_ru": "Яккасарайский район",
      "name_uz": "Yakkasaroy tumani"
    }
  },
  {
    "model": "common.District",
    "pk": "181",
    "fields": {
      "guid": "7fc84bab-4ff7-47f1-8c68-a47683090254",
      "name": "Yangihayot tumani",
      "region": "13",
      "name_ru": "Янгихаятский район",
      "name_uz": "Yangihayot tumani"
    }
  },
  {
    "model": "common.District",
    "pk": "182",
    "fields": {
      "guid": "5e8f324d-c071-4fb4-8f31-ea0e389519db",
      "name": "Yashnobod tumani",
      "region": "13",
      "name_ru": "Яшнабадский район",
      "name_uz": "Yashnobod tumani"
    }
  },
  {
    "model": "common.District",
    "pk": "183",
    "fields": {
      "guid": "acb36642-c1ea-442d-9e9c-d7f47fe1d9b3",
      "name": "Yunusobod tumani",
      "region": "13",
      "name_ru": "Юнусабадский район",
      "name_uz": "Yunusobod tumani"
    }
  },
  {
    "model": "common.District",
    "pk": "184",
    "fields": {
      "guid": "0ca8648d-0511-4aa2-aab0-a00a40755935",      
      "name": "Мirzo Ulug'bek tumani",
      "region": "13",
      "name_ru": "Мирзо Улуғбекский район",
      "name_uz": "Мirzo Ulug'bek tumani"
    }
  },
  {
    "model": "common.District",
    "pk": "185",
    "fields": {
      "guid": "e9d30fc7-85fb-4ad4-99aa-77d526e23889",
      "name": "Bekobod shahri",
      "region": "14",
      "name_ru": "город Бекабад",
      "name_uz": "Bekobod shahri"
    }
  },
  {
    "model": "common.District",
    "pk": "186",
    "fields": {
      "guid": "254fba94-74ff-4e96-a4a3-af1cbcabc47b",
      "name": "Bekobod tumani",
      "region": "14",
      "name_ru": "Бекабадский район",
      "name_uz": "Bekobod tumani"
    }
  },
  {
    "model": "common.District",
    "pk": "187",
    "fields": {
      "guid": "31a498e2-97d1-422f-a4a3-74b119734b3c",
      "name": "Bo'ka tumani",
      "region": "14",
      "name_ru": "Букинский район",
      "name_uz": "Bo'ka tumani"
    }
  },
  {
    "model": "common.District",
    "pk": "188",
    "fields": {
      "guid": "35f4c2df-2977-4405-ae85-f1db5f85a236",
     "name": "Bo'stonliq tumani",
      "region": "14",
      "name_ru": "Бостанлыкский район",
      "name_uz": "Bo'stonliq tumani"
    }
  },
  {
    "model": "common.District",
    "pk": "189",
    "fields": {
      "guid": "3d2a769b-ba95-41e0-868f-c72e60501ba1",
      
      "name": "Chinoz tumani",
      "region": "14",
      "name_ru": "Чиназский район",
      "name_uz": "Chinoz tumani"
    }
  },
  {
    "model": "common.District",
    "pk": "190",
    "fields": {
      "guid": "285dd9af-f027-4a4d-aab5-33ec46101bd4",
      
      "name": "Chirchiq shahri",
      "region": "14",
      "name_ru": "город Чирчик",
      "name_uz": "Chirchiq shahri"
    }
  },
  {
    "model": "common.District",
    "pk": "191",
    "fields": {
      "guid": "79d366bb-b3ea-4500-861b-c0f10693d662",
      
      "name": "Nurafshon shahri",
      "region": "14",
      "name_ru": "город Нурафшон ",
      "name_uz": "Nurafshon shahri"
    }
  },
  {
    "model": "common.District",
    "pk": "192",
    "fields": {
      "guid": "437dacef-6c40-4ad8-a14d-40957f4962b9",
      "name": "Ohangaron shahri",
      "region": "14",
      "name_ru": "Город Aхангаран",
      "name_uz": "Ohangaron shahri"
    }
  },
  {
    "model": "common.District",
    "pk": "193",
    "fields": {
      "guid": "a3cdb4cf-3d95-469a-bd80-e50776f6db02",
      "name": "Ohangaron tumani",
      "region": "14",
      "name_ru": "Aхангаранский район",
      "name_uz": "Ohangaron tumani"
    }
  },
  {
    "model": "common.District",
    "pk": "194",
    "fields": {
      "guid": "8a14339c-1eba-4c75-8294-54f7e7f86ac0",
      "name": "Olmaliq shahri",
      "region": "14",
      "name_ru": "город Aлмалык",
      "name_uz": "Olmaliq shahri"
    }
  },
  {
    "model": "common.District",
    "pk": "195",
    "fields": {
      "guid": "26ee9f64-348d-41ef-ae2b-75df62706f31",
      "name": "Oqqo'rqon tumani",
      "region": "14",
      "name_ru": "Aккурганский район",
      "name_uz": "Oqqo'rqon tumani"
    }
  },
  {
    "model": "common.District",
    "pk": "196",
    "fields": {
      "guid": "a1278fa0-3c98-4128-ab9b-c1aba24e226d",
      
      "name": "O'rtachirchiq tumani",
      "region": "14",
      "name_ru": "Уртачирчикский район",
      "name_uz": "O'rtachirchiq tumani"
    }
  },
  {
    "model": "common.District",
    "pk": "197",
    "fields": {
      "guid": "4af1404f-3d8e-4e72-81ed-314235dc70fa",
      "name": "Parkent tumani",
      "region": "14",
      "name_ru": "Паркентский район",
      "name_uz": "Parkent tumani"
    }
  },
  {
    "model": "common.District",
    "pk": "198",
    "fields": {
      "guid": "bc336b00-c3cc-4a98-88c6-4382087e0a3d",
      "name": "Piskent tumani",
      "region": "14",
      "name_ru": "Пскентский район",
      "name_uz": "Piskent tumani"
    }
  },
  {
    "model": "common.District",
    "pk": "199",
    "fields": {
      "guid": "cf68542a-9702-4a5d-bcc6-6e5b452e5d01",
      "name": "Qibray tumani",
      "region": "14",
      "name_ru": "Кибрайский район",
      "name_uz": "Qibray tumani"
    }
  },
  {
    "model": "common.District",
    "pk": "200",
    "fields": {
      "guid": "a9e7ba48-70b6-40a6-bef5-b4d53e219763",
      "name": "Quyichirchiq tumani",
      "region": "14",
      "name_ru": "Куйичирчикский район",
      "name_uz": "Quyichirchiq tumani"
    }
  },
  {
    "model": "common.District",
    "pk": "201",
    "fields": {
      "guid": "9eb57ac1-87e1-49c4-bd98-aa9c58c3e25b",
      "name": "Yangiyo'l shaxri",
      "region": "14",
      "name_ru": "город Янгийул",
      "name_uz": "Yangiyo'l shaxri"
    }
  },
  {
    "model": "common.District",
    "pk": "202",
    "fields": {
      "guid": "d96e9ea6-2e01-4a8c-9eda-f80a46f4b14b",
      "name": "Yangiyo'l tumani",
      "region": "14",
      "name_ru": "Янгиюльский район",
      "name_uz": "Yangiyo'l tumani"
    }
  },
  {
    "model": "common.District",
    "pk": "203",
    "fields": {
      "guid": "3335ca9b-27e0-4958-8768-d7db203e1b36",
      "name": "Yuqorichirchiq tumani",
      "region": "14",
      "name_ru": "Юкоричирчикский район",
      "name_uz": "Yuqorichirchiq tumani"
    }
  },
  {
    "model": "common.District",
    "pk": "204",
    "fields": {
      "guid": "8dfef29b-b0ba-40e9-9481-13756e83988b",
      "name": "Zangiota tumani",
      "region": "14",
      "name_ru": "Зангиатинский район",
      "name_uz": "Zangiota tumani"
    }
  },
  {
    "model": "common.District",
    "pk": "205",
    "fields": {
      "guid": "6fa2970b-ef9b-436f-8fa1-d21c60a4c647",
      "name": "Angren shahri",
      "region": "14",
      "name_ru": "город Aнгрен",
      "name_uz": "Angren shahri"
    }
  },
  {
    "model": "common.District",
    "pk": "206",
    "fields": {
      "guid": "0b4e5d5d-38b9-4bbb-8b97-b9587cb67380",
      "name": "Toshkent tumani",
      "region": "14",
      "name_ru": "Ташкентский район",
      "name_uz": "Toshkent tumani"
    }
  }
]
